{
    "satellites": [
        {
            "name": "starlink368",
            "title": "Starlink-368 (G10-33) (new)",
            "tle": [
                "1 68290C 26055AE  26085.40743056 -.00926800  00000+0 -14433-2 0   852",
                "2 68290  53.1586 254.0114 0000718 118.6508  66.7615 16.03821003    13"
            ],
            "stdMag": 5,
            "noradId": "68290",
            "intDes": null,
            "tleUrl": "http://celestrak.org/NORAD/elements/supplemental/sup-gp.php?FILE=starlink&FORMAT=tle",
            "launchDate": "2026-03-19T14:20:10.000Z",
            "active": true,
            "batch": [
                {
                    "noradId": "68290",
                    "tle": [
                        "1 68290C 26055AE  26085.40743056 -.00926800  00000+0 -14433-2 0   852",
                        "2 68290  53.1586 254.0114 0000718 118.6508  66.7615 16.03821003    13"
                    ]
                },
                {
                    "noradId": "68284",
                    "tle": [
                        "1 68284C 26055Y   26085.34215278 -.00910610  00000+0 -14785-2 0   850",
                        "2 68284  53.1588 254.3749 0000624 110.6347  45.8094 16.03112656    10"
                    ]
                },
                {
                    "noradId": "68287",
                    "tle": [
                        "1 68287C 26055AB  26085.38243056 -.00919140  00000+0 -14477-2 0   857",
                        "2 68287  53.1588 254.1481 0000554  91.5078 306.0150 16.03628022    18"
                    ]
                },
                {
                    "noradId": "68289",
                    "tle": [
                        "1 68289C 26055AD  26085.39006944 -.00929500  00000+0 -14541-2 0   856",
                        "2 68289  53.1589 254.1041 0000596 105.9702 337.5292 16.03746057    18"
                    ]
                },
                {
                    "noradId": "68288",
                    "tle": [
                        "1 68288C 26055AC  26085.44284722 -.00976360  00000+0 -15774-2 0   858",
                        "2 68288  53.1589 253.8451 0000555  99.4685 282.4395 16.03230161    16"
                    ]
                },
                {
                    "noradId": "68286",
                    "tle": [
                        "1 68286C 26055AA  26085.37965278 -.00914390  00000+0 -14524-2 0   857",
                        "2 68286  53.1592 254.1682 0000537 110.4729 268.8968 16.03484016    15"
                    ]
                },
                {
                    "noradId": "68282",
                    "tle": [
                        "1 68282C 26055W   26085.41437500 -.00940510  00000+0 -15784-2 0   852",
                        "2 68282  53.1589 254.0144 0000681 111.1854  95.9388 16.02568860    10"
                    ]
                },
                {
                    "noradId": "68285",
                    "tle": [
                        "1 68285C 26055Z   26085.38868056 -.00942010  00000+0 -15263-2 0   854",
                        "2 68285  53.1585 254.1298 0000574 105.4349 321.5034 16.03164621    10"
                    ]
                },
                {
                    "noradId": "68283",
                    "tle": [
                        "1 68283C 26055X   26085.37895833 -.00946900  00000+0 -15581-2 0   859",
                        "2 68283  53.1588 254.1891 0000504 103.0141 263.6714 16.02905913    14"
                    ]
                },
                {
                    "noradId": "68280",
                    "tle": [
                        "1 68280C 26055U   26085.34423611 -.00920060  00000+0 -15466-2 0   855",
                        "2 68280  53.1589 254.3815 0000624 108.6342  51.2364 16.02530720    19"
                    ]
                },
                {
                    "noradId": "68276",
                    "tle": [
                        "1 68276C 26055Q   26085.37826389 -.00941710  00000+0 -16467-2 0   859",
                        "2 68276  53.1590 254.2245 0000559  89.9467 257.1159 16.01868836    18"
                    ]
                },
                {
                    "noradId": "68278",
                    "tle": [
                        "1 68278C 26055S   26085.34215278 -.00919250  00000+0 -15729-2 0   851",
                        "2 68278  53.1589 254.4023 0000630 109.6405  33.6421 16.02228123    15"
                    ]
                },
                {
                    "noradId": "68279",
                    "tle": [
                        "1 68279C 26055T   26085.36854167 -.00949720  00000+0 -16427-2 0   851",
                        "2 68279  53.1589 254.2699 0000596 101.1248 192.3705 16.02059154    10"
                    ]
                },
                {
                    "noradId": "68277",
                    "tle": [
                        "1 68277C 26055R   26085.43312500 -.00982170  00000+0 -16840-2 0   852",
                        "2 68277  53.1591 253.9270 0000716 114.0913 196.2937 16.02225681    18"
                    ]
                },
                {
                    "noradId": "68275",
                    "tle": [
                        "1 68275C 26055P   26085.33798611 -.00933030  00000+0 -16406-2 0   859",
                        "2 68275  53.1591 254.4381 0000597 103.4165   8.6170 16.01769509    19"
                    ]
                },
                {
                    "noradId": "68274",
                    "tle": [
                        "1 68274C 26055N   26085.36923611 -.00928450  00000+0 -16493-2 0   857",
                        "2 68274  53.1589 254.2803 0000585  94.4977 196.0384 16.01591818    14"
                    ]
                },
                {
                    "noradId": "68273",
                    "tle": [
                        "1 68273C 26055M   26085.34076389 -.00928250  00000+0 -16572-2 0   851",
                        "2 68273  53.1590 254.4317 0000684  92.3534  31.7375 16.01505294    11"
                    ]
                },
                {
                    "noradId": "68272",
                    "tle": [
                        "1 68272C 26055L   26085.41368056 -.00947500  00000+0 -17171-2 0   858",
                        "2 68272  53.1591 254.0594 0000693 107.9932  74.8159 16.01257194    10"
                    ]
                },
                {
                    "noradId": "68271",
                    "tle": [
                        "1 68271C 26055K   26085.43104167 -.00969950  00000+0 -17934-2 0   850",
                        "2 68271  53.1592 253.9804 0000713 103.2529 174.6513 16.00920812    12"
                    ]
                },
                {
                    "noradId": "68267",
                    "tle": [
                        "1 68267C 26055F   26085.38520833 -.00934350  00000+0 -17665-2 0   858",
                        "2 68267  53.1594 254.2361 0000595  94.3189 270.0418 16.00515495    13"
                    ]
                },
                {
                    "noradId": "68270",
                    "tle": [
                        "1 68270C 26055J   26085.36784722 -.00931710  00000+0 -16973-2 0   857",
                        "2 68270  53.1591 254.3016 0000558  96.3604 179.3175 16.01159219    15"
                    ]
                },
                {
                    "noradId": "68265",
                    "tle": [
                        "1 68265C 26055D   26085.37131944 -.00914520  00000+0 -17686-2 0   856",
                        "2 68265  53.1593 254.3223 0000541 102.4874 174.8802 16.00109866    10"
                    ]
                },
                {
                    "noradId": "68268",
                    "tle": [
                        "1 68268C 26055G   26085.33937500 -.00919880  00000+0 -17182-2 0   852",
                        "2 68268  53.1593 254.4686 0000566  99.5019   2.6229 16.00719331    16"
                    ]
                },
                {
                    "noradId": "68263",
                    "tle": [
                        "1 68263C 26055B   26085.43520833 -.00948820  00000+0 -18608-2 0   855",
                        "2 68263  53.1595 253.9977 0000632  96.8764 186.5662 15.99881448    10"
                    ]
                },
                {
                    "noradId": "68264",
                    "tle": [
                        "1 68264C 26055C   26085.34423611 -.00910860  00000+0 -17443-2 0   851",
                        "2 68264  53.1592 254.4575 0000691  91.7785  31.4858 16.00279840    15"
                    ]
                },
                {
                    "noradId": "68266",
                    "tle": [
                        "1 68266C 26055E   26085.43937500 -.00957280  00000+0 -18347-2 0   851",
                        "2 68266  53.1593 253.9618 0000549  96.2348 218.1040 16.00289237    15"
                    ]
                },
                {
                    "noradId": "68269",
                    "tle": [
                        "1 68269C 26055H   26085.39493056 -.00942150  00000+0 -17568-2 0   856",
                        "2 68269  53.1593 254.1773 0000647  99.6413 324.9703 16.00759715    17"
                    ]
                },
                {
                    "noradId": "68262",
                    "tle": [
                        "1 68262C 26055A   26085.44354167 -.00948920  00000+0 -18721-2 0   857",
                        "2 68262  53.1596 253.9579 0000663 106.0779 223.6880 15.99776670    17"
                    ]
                }
            ]
        }
    ],
    "config": {}
}